KUIPER-00279            
1 67795U 26030AH  26064.27671176  .00028585  00000+0  83100-3 0  9992
2 67795  51.8803 240.4861 0006461  35.1571 324.9840 15.35214301  4419
CREW DRAGON 12          
1 67796U 26031A   26064.25394533  .00008604  00000+0  16717-3 0  9991
2 67796  51.6314  94.2866 0008160 158.8383 201.2944 15.48454548555569
STARLINK-36800          
1 67797U 26032A   26064.24659361  .00267369  00000+0  17314-2 0  9993
2 67797  97.2842 250.5102 0001245  81.7280 278.4126 15.75276978  4082
STARLINK-36798          
1 67798U 26032B   26064.25003472 -.00044860  00000+0 -30133-3 0  9997
2 67798  97.2843 250.5538 0002050  83.6987  27.9175 15.75197893  4008
STARLINK-36804          
1 67799U 26032C   26064.24483121  .00236379  00000+0  15369-2 0  9999
2 67799  97.2842 250.5128 0001341  68.3427 291.7981 15.75269995  4081
STARLINK-36354          
1 67800U 26032D   26064.25003472 -.00022436  00000+0 -14994-3 0  9993
2 67800  97.2842 250.5464 0001595  93.5622 358.0425 15.75190435  4065
STARLINK-36773          
1 67801U 26032E   26064.24165906  .00202882  00000+0  13260-2 0  9991
2 67801  97.2841 250.5164 0001502  71.2344 288.9084 15.75241770  4087
STARLINK-36739          
1 67802U 26032F   26064.25003472 -.00998437  00000+0 -72851-2 0  9993
2 67802  97.2838 250.5698 0001587  85.3906  65.8273 15.75915597  4064
STARLINK-36768          
1 67803U 26032G   26064.25003472  .00028048  00000+0  18845-3 0  9998
2 67803  97.2840 250.5410 0001498  69.6746  11.9379 15.75171052  4067
STARLINK-36792          
1 67804U 26032H   26064.23813118  .00162375  00000+0  10674-2 0  9996
2 67804  97.2838 250.5205 0001439  67.6964 292.4454 15.75223237  4087
STARLINK-36782          
1 67805U 26032J   26064.28347814  .00327575  00000+0  16384-2 0  9996
2 67805  97.2824 250.6121 0001528  52.7430 307.3978 15.80937231  4093
STARLINK-36389          
1 67806U 26032K   26064.25003472  .00028212  00000+0  18955-3 0  9996
2 67806  97.2834 250.5618 0001492  85.2115  46.3888 15.75170550  4060
STARLINK-36382          
1 67807U 26032L   26064.25003472  .00041014  00000+0  27478-3 0  9992
2 67807  97.2835 250.5657 0001756  97.3199  46.2835 15.75167481  4008
STARLINK-36811          
1 67808U 26032M   26064.28020869  .00335462  00000+0  16896-2 0  9999
2 67808  97.2822 250.6159 0001543   5.0631 355.0652 15.80764410  4092
STARLINK-36795          
1 67809U 26032N   26064.23177522  .00195870  00000+0  12813-2 0  9996
2 67809  97.2834 250.5284 0001318  61.5281 298.6117 15.75241895  4080
STARLINK-36807          
1 67810U 26032P   26064.25003472 -.01525787  00000+0 -11021-1 0  9998
2 67810  97.2837 250.5857 0002177  78.0959 114.7290 15.76429314  4063
