[{"OBJECT_NAME":"KUIPER-00279","OBJECT_ID":"2026-030AH","EPOCH":"2026-03-05T06:38:27.896064","MEAN_MOTION":15.35214301,"ECCENTRICITY":0.00064617,"INCLINATION":51.8803,"RA_OF_ASC_NODE":240.4861,"ARG_OF_PERICENTER":35.1571,"MEAN_ANOMALY":324.984,"EPHEMERIS_TYPE":0,"CLASSIFICATION_TYPE":"U","NORAD_CAT_ID":67795,"ELEMENT_SET_NO":999,"REV_AT_EPOCH":441,"BSTAR":0.00083099634,"MEAN_MOTION_DOT":0.00028585,"MEAN_MOTION_DDOT":0},{"OBJECT_NAME":"CREW DRAGON 12","OBJECT_ID":"2026-031A","EPOCH":"2026-03-05T06:05:40.876512","MEAN_MOTION":15.48454548,"ECCENTRICITY":0.00081607,"INCLINATION":51.6314,"RA_OF_ASC_NODE":94.2866,"ARG_OF_PERICENTER":158.8383,"MEAN_ANOMALY":201.2944,"EPHEMERIS_TYPE":0,"CLASSIFICATION_TYPE":"U","NORAD_CAT_ID":67796,"ELEMENT_SET_NO":999,"REV_AT_EPOCH":55556,"BSTAR":0.00016717327,"MEAN_MOTION_DOT":8.604e-5,"MEAN_MOTION_DDOT":0},{"OBJECT_NAME":"STARLINK-36800","OBJECT_ID":"2026-032A","EPOCH":"2026-03-05T05:55:05.687904","MEAN_MOTION":15.75276978,"ECCENTRICITY":0.00012458,"INCLINATION":97.2842,"RA_OF_ASC_NODE":250.5102,"ARG_OF_PERICENTER":81.728,"MEAN_ANOMALY":278.4126,"EPHEMERIS_TYPE":0,"CLASSIFICATION_TYPE":"U","NORAD_CAT_ID":67797,"ELEMENT_SET_NO":999,"REV_AT_EPOCH":408,"BSTAR":0.0017313644,"MEAN_MOTION_DOT":0.00267369,"MEAN_MOTION_DDOT":0},{"OBJECT_NAME":"STARLINK-36798","OBJECT_ID":"2026-032B","EPOCH":"2026-03-05T06:00:02.999808","MEAN_MOTION":15.75197893,"ECCENTRICITY":0.00020503,"INCLINATION":97.2843,"RA_OF_ASC_NODE":250.5538,"ARG_OF_PERICENTER":83.6987,"MEAN_ANOMALY":27.9175,"EPHEMERIS_TYPE":0,"CLASSIFICATION_TYPE":"U","NORAD_CAT_ID":67798,"ELEMENT_SET_NO":999,"REV_AT_EPOCH":400,"BSTAR":-0.00030133461,"MEAN_MOTION_DOT":-0.0004486,"MEAN_MOTION_DDOT":0},{"OBJECT_NAME":"STARLINK-36804","OBJECT_ID":"2026-032C","EPOCH":"2026-03-05T05:52:33.416544","MEAN_MOTION":15.75269995,"ECCENTRICITY":0.00013411,"INCLINATION":97.2842,"RA_OF_ASC_NODE":250.5128,"ARG_OF_PERICENTER":68.3427,"MEAN_ANOMALY":291.7981,"EPHEMERIS_TYPE":0,"CLASSIFICATION_TYPE":"U","NORAD_CAT_ID":67799,"ELEMENT_SET_NO":999,"REV_AT_EPOCH":408,"BSTAR":0.0015368694,"MEAN_MOTION_DOT":0.00236379,"MEAN_MOTION_DDOT":0},{"OBJECT_NAME":"STARLINK-36354","OBJECT_ID":"2026-032D","EPOCH":"2026-03-05T06:00:02.999808","MEAN_MOTION":15.75190435,"ECCENTRICITY":0.00015954,"INCLINATION":97.2842,"RA_OF_ASC_NODE":250.5464,"ARG_OF_PERICENTER":93.5622,"MEAN_ANOMALY":358.0425,"EPHEMERIS_TYPE":0,"CLASSIFICATION_TYPE":"U","NORAD_CAT_ID":67800,"ELEMENT_SET_NO":999,"REV_AT_EPOCH":406,"BSTAR":-0.0001499353,"MEAN_MOTION_DOT":-0.00022436,"MEAN_MOTION_DDOT":0},{"OBJECT_NAME":"STARLINK-36773","OBJECT_ID":"2026-032E","EPOCH":"2026-03-05T05:47:59.342784","MEAN_MOTION":15.7524177,"ECCENTRICITY":0.00015027,"INCLINATION":97.2841,"RA_OF_ASC_NODE":250.5164,"ARG_OF_PERICENTER":71.2344,"MEAN_ANOMALY":288.9084,"EPHEMERIS_TYPE":0,"CLASSIFICATION_TYPE":"U","NORAD_CAT_ID":67801,"ELEMENT_SET_NO":999,"REV_AT_EPOCH":408,"BSTAR":0.001326041,"MEAN_MOTION_DOT":0.00202882,"MEAN_MOTION_DDOT":0},{"OBJECT_NAME":"STARLINK-36739","OBJECT_ID":"2026-032F","EPOCH":"2026-03-05T06:00:02.999808","MEAN_MOTION":15.75915597,"ECCENTRICITY":0.00015874,"INCLINATION":97.2838,"RA_OF_ASC_NODE":250.5698,"ARG_OF_PERICENTER":85.3906,"MEAN_ANOMALY":65.8273,"EPHEMERIS_TYPE":0,"CLASSIFICATION_TYPE":"U","NORAD_CAT_ID":67802,"ELEMENT_SET_NO":999,"REV_AT_EPOCH":406,"BSTAR":-0.0072850769,"MEAN_MOTION_DOT":-0.00998437,"MEAN_MOTION_DDOT":0},{"OBJECT_NAME":"STARLINK-36768","OBJECT_ID":"2026-032G","EPOCH":"2026-03-05T06:00:02.999808","MEAN_MOTION":15.75171052,"ECCENTRICITY":0.00014989,"INCLINATION":97.284,"RA_OF_ASC_NODE":250.541,"ARG_OF_PERICENTER":69.6746,"MEAN_ANOMALY":11.9379,"EPHEMERIS_TYPE":0,"CLASSIFICATION_TYPE":"U","NORAD_CAT_ID":67803,"ELEMENT_SET_NO":999,"REV_AT_EPOCH":406,"BSTAR":0.00018844692,"MEAN_MOTION_DOT":0.00028048,"MEAN_MOTION_DDOT":0},{"OBJECT_NAME":"STARLINK-36792","OBJECT_ID":"2026-032H","EPOCH":"2026-03-05T05:42:54.533952","MEAN_MOTION":15.75223237,"ECCENTRICITY":0.00014391,"INCLINATION":97.2838,"RA_OF_ASC_NODE":250.5205,"ARG_OF_PERICENTER":67.6964,"MEAN_ANOMALY":292.4454,"EPHEMERIS_TYPE":0,"CLASSIFICATION_TYPE":"U","NORAD_CAT_ID":67804,"ELEMENT_SET_NO":999,"REV_AT_EPOCH":408,"BSTAR":0.0010673954,"MEAN_MOTION_DOT":0.00162375,"MEAN_MOTION_DDOT":0},{"OBJECT_NAME":"STARLINK-36782","OBJECT_ID":"2026-032J","EPOCH":"2026-03-05T06:48:12.511296","MEAN_MOTION":15.80937231,"ECCENTRICITY":0.00015285,"INCLINATION":97.2824,"RA_OF_ASC_NODE":250.6121,"ARG_OF_PERICENTER":52.743,"MEAN_ANOMALY":307.3978,"EPHEMERIS_TYPE":0,"CLASSIFICATION_TYPE":"U","NORAD_CAT_ID":67805,"ELEMENT_SET_NO":999,"REV_AT_EPOCH":409,"BSTAR":0.0016384131,"MEAN_MOTION_DOT":0.00327575,"MEAN_MOTION_DDOT":0},{"OBJECT_NAME":"STARLINK-36389","OBJECT_ID":"2026-032K","EPOCH":"2026-03-05T06:00:02.999808","MEAN_MOTION":15.7517055,"ECCENTRICITY":0.00014925,"INCLINATION":97.2834,"RA_OF_ASC_NODE":250.5618,"ARG_OF_PERICENTER":85.2115,"MEAN_ANOMALY":46.3888,"EPHEMERIS_TYPE":0,"CLASSIFICATION_TYPE":"U","NORAD_CAT_ID":67806,"ELEMENT_SET_NO":999,"REV_AT_EPOCH":406,"BSTAR":0.00018954852,"MEAN_MOTION_DOT":0.00028212,"MEAN_MOTION_DDOT":0},{"OBJECT_NAME":"STARLINK-36382","OBJECT_ID":"2026-032L","EPOCH":"2026-03-05T06:00:02.999808","MEAN_MOTION":15.75167481,"ECCENTRICITY":0.00017563,"INCLINATION":97.2835,"RA_OF_ASC_NODE":250.5657,"ARG_OF_PERICENTER":97.3199,"MEAN_ANOMALY":46.2835,"EPHEMERIS_TYPE":0,"CLASSIFICATION_TYPE":"U","NORAD_CAT_ID":67807,"ELEMENT_SET_NO":999,"REV_AT_EPOCH":400,"BSTAR":0.00027478225,"MEAN_MOTION_DOT":0.00041014,"MEAN_MOTION_DDOT":0},{"OBJECT_NAME":"STARLINK-36811","OBJECT_ID":"2026-032M","EPOCH":"2026-03-05T06:43:30.030816","MEAN_MOTION":15.8076441,"ECCENTRICITY":0.00015436,"INCLINATION":97.2822,"RA_OF_ASC_NODE":250.6159,"ARG_OF_PERICENTER":5.0631,"MEAN_ANOMALY":355.0652,"EPHEMERIS_TYPE":0,"CLASSIFICATION_TYPE":"U","NORAD_CAT_ID":67808,"ELEMENT_SET_NO":999,"REV_AT_EPOCH":409,"BSTAR":0.0016895588,"MEAN_MOTION_DOT":0.00335462,"MEAN_MOTION_DDOT":0},{"OBJECT_NAME":"STARLINK-36795","OBJECT_ID":"2026-032N","EPOCH":"2026-03-05T05:33:45.379008","MEAN_MOTION":15.75241895,"ECCENTRICITY":0.00013185,"INCLINATION":97.2834,"RA_OF_ASC_NODE":250.5284,"ARG_OF_PERICENTER":61.5281,"MEAN_ANOMALY":298.6117,"EPHEMERIS_TYPE":0,"CLASSIFICATION_TYPE":"U","NORAD_CAT_ID":67809,"ELEMENT_SET_NO":999,"REV_AT_EPOCH":408,"BSTAR":0.0012812983,"MEAN_MOTION_DOT":0.0019587,"MEAN_MOTION_DDOT":0},{"OBJECT_NAME":"STARLINK-36807","OBJECT_ID":"2026-032P","EPOCH":"2026-03-05T06:00:02.999808","MEAN_MOTION":15.76429314,"ECCENTRICITY":0.00021777,"INCLINATION":97.2837,"RA_OF_ASC_NODE":250.5857,"ARG_OF_PERICENTER":78.0959,"MEAN_ANOMALY":114.729,"EPHEMERIS_TYPE":0,"CLASSIFICATION_TYPE":"U","NORAD_CAT_ID":67810,"ELEMENT_SET_NO":999,"REV_AT_EPOCH":406,"BSTAR":-0.011021121,"MEAN_MOTION_DOT":-0.01525787,"MEAN_MOTION_DDOT":0}]
